ONEWEB-0654             
1 55816U 23029W   26060.13771674  .00000287  00000+0  74012-3 0  9994
2 55816  87.8990 311.2650 0001642  67.1192 293.0111 13.14502391145225
ONEWEB-0656             
1 55817U 23029X   26060.17490258  .00000061  00000+0  11909-3 0  9991
2 55817  87.9185 295.9936 0001608  67.5489 292.5815 13.20772095146899
ONEWEB-0657             
1 55818U 23029Y   26059.73078660 -.00000001  00000+0 -33978-4 0  9998
2 55818  87.9238 326.5806 0002360  70.2459 289.8928 13.19725091144603
ONEWEB-0658             
1 55819U 23029Z   26059.72604528  .00000034  00000+0  53521-4 0  9996
2 55819  87.9249 326.5475 0001923  91.2510 268.8843 13.19725521144615
ONEWEB-0660             
1 55820U 23029AA  26060.11552026 -.00000089  00000+0 -27350-3 0  9990
2 55820  87.9005 311.2551 0001386  88.5522 271.5766 13.14502938145209
ONEWEB-0661             
1 55821U 23029AB  26060.15040419  .00000255  00000+0  65215-3 0  9998
2 55821  87.8994 311.3057 0001333  84.2214 275.9068 13.14501958145193
ONEWEB-0662             
1 55822U 23029AC  26060.10917299 -.00000208  00000+0 -59459-3 0  9996
2 55822  87.8993 311.3206 0001433  89.5205 270.6088 13.14502188145233
ONEWEB-0663             
1 55823U 23029AD  26060.14084333  .00000151  00000+0  33802-3 0  9994
2 55823  87.9195 296.0727 0001533 100.3316 259.7991 13.20861951146888
ONEWEB-0664             
1 55824U 23029AE  26060.16227962  .00000110  00000+0  23742-3 0  9991
2 55824  87.9178 296.0616 0001133  80.2637 279.8625 13.20774176146884
ONEWEB-0665             
1 55825U 23029AF  26060.14723508  .00000231  00000+0  58983-3 0  9996
2 55825  87.8994 311.2863 0001498  91.1849 268.9453 13.14501630145214
ONEWEB-0666             
1 55826U 23029AG  26060.15596614  .00000178  00000+0  40483-3 0  9990
2 55826  87.9175 296.0529 0002182  70.6410 289.4959 13.20771789146898
ONEWEB-0667             
1 55827U 23029AH  26060.14965380  .00000113  00000+0  24658-3 0  9995
2 55827  87.9189 295.9941 0001474  87.1929 272.9373 13.20771254146884
ONEWEB-0669             
1 55828U 23029AJ  26060.14491776  .00000133  00000+0  29451-3 0  9997
2 55828  87.9176 296.0208 0001483  61.0935 299.0347 13.20771039146889
ONEWEB-0670             
1 55829U 23029AK  26060.12503035  .00000147  00000+0  36196-3 0  9997
2 55829  87.8993 311.3093 0001233  80.4921 279.6348 13.14502116145236
ONEWEB-0671             
1 55830U 23029AL  26060.10039035 -.00000161  00000+0 -43351-3 0  9990
2 55830  87.9239 326.5081 0001549  83.6306 276.5003 13.19724089144647
ONEWEB-0672             
1 55831U 23029AM  26060.14018220  .00000147  00000+0  32872-3 0  9996
2 55831  87.9186 296.0073 0001765  74.9689 285.1639 13.20772302146880
ONEWEB-0673             
1 55832U 23029AN  26060.15329679  .00000096  00000+0  20728-3 0  9991
2 55832  87.9244 326.4826 0001596  80.5270 279.6043 13.19726937144652
