[{"OBJECT_NAME":"ONEWEB-0654","OBJECT_ID":"2023-029W","EPOCH":"2026-03-01T03:18:18.726336","MEAN_MOTION":13.14502391,"ECCENTRICITY":0.0001642,"INCLINATION":87.899,"RA_OF_ASC_NODE":311.265,"ARG_OF_PERICENTER":67.1192,"MEAN_ANOMALY":293.0111,"EPHEMERIS_TYPE":0,"CLASSIFICATION_TYPE":"U","NORAD_CAT_ID":55816,"ELEMENT_SET_NO":999,"REV_AT_EPOCH":14522,"BSTAR":0.00074012,"MEAN_MOTION_DOT":2.87e-6,"MEAN_MOTION_DDOT":0},{"OBJECT_NAME":"ONEWEB-0656","OBJECT_ID":"2023-029X","EPOCH":"2026-03-01T04:11:51.582912","MEAN_MOTION":13.20772095,"ECCENTRICITY":0.0001608,"INCLINATION":87.9185,"RA_OF_ASC_NODE":295.9936,"ARG_OF_PERICENTER":67.5489,"MEAN_ANOMALY":292.5815,"EPHEMERIS_TYPE":0,"CLASSIFICATION_TYPE":"U","NORAD_CAT_ID":55817,"ELEMENT_SET_NO":999,"REV_AT_EPOCH":14689,"BSTAR":0.00011909,"MEAN_MOTION_DOT":6.1e-7,"MEAN_MOTION_DDOT":0},{"OBJECT_NAME":"ONEWEB-0657","OBJECT_ID":"2023-029Y","EPOCH":"2026-02-28T17:32:19.962240","MEAN_MOTION":13.19725091,"ECCENTRICITY":0.00023609,"INCLINATION":87.9238,"RA_OF_ASC_NODE":326.5806,"ARG_OF_PERICENTER":70.2459,"MEAN_ANOMALY":289.8928,"EPHEMERIS_TYPE":0,"CLASSIFICATION_TYPE":"U","NORAD_CAT_ID":55818,"ELEMENT_SET_NO":999,"REV_AT_EPOCH":14460,"BSTAR":-3.3977907e-5,"MEAN_MOTION_DOT":-1.0e-8,"MEAN_MOTION_DDOT":0},{"OBJECT_NAME":"ONEWEB-0658","OBJECT_ID":"2023-029Z","EPOCH":"2026-02-28T17:25:30.312192","MEAN_MOTION":13.19725521,"ECCENTRICITY":0.00019232,"INCLINATION":87.9249,"RA_OF_ASC_NODE":326.5475,"ARG_OF_PERICENTER":91.251,"MEAN_ANOMALY":268.8843,"EPHEMERIS_TYPE":0,"CLASSIFICATION_TYPE":"U","NORAD_CAT_ID":55819,"ELEMENT_SET_NO":999,"REV_AT_EPOCH":14461,"BSTAR":5.3520935e-5,"MEAN_MOTION_DOT":3.4e-7,"MEAN_MOTION_DDOT":0},{"OBJECT_NAME":"ONEWEB-0660","OBJECT_ID":"2023-029AA","EPOCH":"2026-03-01T02:46:20.950464","MEAN_MOTION":13.14502938,"ECCENTRICITY":0.0001386,"INCLINATION":87.9005,"RA_OF_ASC_NODE":311.2551,"ARG_OF_PERICENTER":88.5522,"MEAN_ANOMALY":271.5766,"EPHEMERIS_TYPE":0,"CLASSIFICATION_TYPE":"U","NORAD_CAT_ID":55820,"ELEMENT_SET_NO":999,"REV_AT_EPOCH":14520,"BSTAR":-0.0002735,"MEAN_MOTION_DOT":-8.9e-7,"MEAN_MOTION_DDOT":0},{"OBJECT_NAME":"ONEWEB-0661","OBJECT_ID":"2023-029AB","EPOCH":"2026-03-01T03:36:34.922016","MEAN_MOTION":13.14501958,"ECCENTRICITY":0.0001333,"INCLINATION":87.8994,"RA_OF_ASC_NODE":311.3057,"ARG_OF_PERICENTER":84.2214,"MEAN_ANOMALY":275.9068,"EPHEMERIS_TYPE":0,"CLASSIFICATION_TYPE":"U","NORAD_CAT_ID":55821,"ELEMENT_SET_NO":999,"REV_AT_EPOCH":14519,"BSTAR":0.00065215,"MEAN_MOTION_DOT":2.55e-6,"MEAN_MOTION_DDOT":0},{"OBJECT_NAME":"ONEWEB-0662","OBJECT_ID":"2023-029AC","EPOCH":"2026-03-01T02:37:12.546336","MEAN_MOTION":13.14502188,"ECCENTRICITY":0.0001433,"INCLINATION":87.8993,"RA_OF_ASC_NODE":311.3206,"ARG_OF_PERICENTER":89.5205,"MEAN_ANOMALY":270.6088,"EPHEMERIS_TYPE":0,"CLASSIFICATION_TYPE":"U","NORAD_CAT_ID":55822,"ELEMENT_SET_NO":999,"REV_AT_EPOCH":14523,"BSTAR":-0.00059459,"MEAN_MOTION_DOT":-2.08e-6,"MEAN_MOTION_DDOT":0},{"OBJECT_NAME":"ONEWEB-0663","OBJECT_ID":"2023-029AD","EPOCH":"2026-03-01T03:22:48.863712","MEAN_MOTION":13.20861951,"ECCENTRICITY":0.0001533,"INCLINATION":87.9195,"RA_OF_ASC_NODE":296.0727,"ARG_OF_PERICENTER":100.3316,"MEAN_ANOMALY":259.7991,"EPHEMERIS_TYPE":0,"CLASSIFICATION_TYPE":"U","NORAD_CAT_ID":55823,"ELEMENT_SET_NO":999,"REV_AT_EPOCH":14688,"BSTAR":0.00033802,"MEAN_MOTION_DOT":1.51e-6,"MEAN_MOTION_DDOT":0},{"OBJECT_NAME":"ONEWEB-0664","OBJECT_ID":"2023-029AE","EPOCH":"2026-03-01T03:53:40.959168","MEAN_MOTION":13.20774176,"ECCENTRICITY":0.0001133,"INCLINATION":87.9178,"RA_OF_ASC_NODE":296.0616,"ARG_OF_PERICENTER":80.2637,"MEAN_ANOMALY":279.8625,"EPHEMERIS_TYPE":0,"CLASSIFICATION_TYPE":"U","NORAD_CAT_ID":55824,"ELEMENT_SET_NO":999,"REV_AT_EPOCH":14688,"BSTAR":0.00023742,"MEAN_MOTION_DOT":1.1e-6,"MEAN_MOTION_DDOT":0},{"OBJECT_NAME":"ONEWEB-0665","OBJECT_ID":"2023-029AF","EPOCH":"2026-03-01T03:32:01.110912","MEAN_MOTION":13.1450163,"ECCENTRICITY":0.0001498,"INCLINATION":87.8994,"RA_OF_ASC_NODE":311.2863,"ARG_OF_PERICENTER":91.1849,"MEAN_ANOMALY":268.9453,"EPHEMERIS_TYPE":0,"CLASSIFICATION_TYPE":"U","NORAD_CAT_ID":55825,"ELEMENT_SET_NO":999,"REV_AT_EPOCH":14521,"BSTAR":0.00058983,"MEAN_MOTION_DOT":2.31e-6,"MEAN_MOTION_DDOT":0},{"OBJECT_NAME":"ONEWEB-0666","OBJECT_ID":"2023-029AG","EPOCH":"2026-03-01T03:44:35.474496","MEAN_MOTION":13.20771789,"ECCENTRICITY":0.0002182,"INCLINATION":87.9175,"RA_OF_ASC_NODE":296.0529,"ARG_OF_PERICENTER":70.641,"MEAN_ANOMALY":289.4959,"EPHEMERIS_TYPE":0,"CLASSIFICATION_TYPE":"U","NORAD_CAT_ID":55826,"ELEMENT_SET_NO":999,"REV_AT_EPOCH":14689,"BSTAR":0.00040483,"MEAN_MOTION_DOT":1.78e-6,"MEAN_MOTION_DDOT":0},{"OBJECT_NAME":"ONEWEB-0667","OBJECT_ID":"2023-029AH","EPOCH":"2026-03-01T03:35:30.088320","MEAN_MOTION":13.20771254,"ECCENTRICITY":0.0001474,"INCLINATION":87.9189,"RA_OF_ASC_NODE":295.9941,"ARG_OF_PERICENTER":87.1929,"MEAN_ANOMALY":272.9373,"EPHEMERIS_TYPE":0,"CLASSIFICATION_TYPE":"U","NORAD_CAT_ID":55827,"ELEMENT_SET_NO":999,"REV_AT_EPOCH":14688,"BSTAR":0.00024658,"MEAN_MOTION_DOT":1.13e-6,"MEAN_MOTION_DDOT":0},{"OBJECT_NAME":"ONEWEB-0669","OBJECT_ID":"2023-029AJ","EPOCH":"2026-03-01T03:28:40.894464","MEAN_MOTION":13.20771039,"ECCENTRICITY":0.0001483,"INCLINATION":87.9176,"RA_OF_ASC_NODE":296.0208,"ARG_OF_PERICENTER":61.0935,"MEAN_ANOMALY":299.0347,"EPHEMERIS_TYPE":0,"CLASSIFICATION_TYPE":"U","NORAD_CAT_ID":55828,"ELEMENT_SET_NO":999,"REV_AT_EPOCH":14688,"BSTAR":0.00029451,"MEAN_MOTION_DOT":1.33e-6,"MEAN_MOTION_DDOT":0},{"OBJECT_NAME":"ONEWEB-0670","OBJECT_ID":"2023-029AK","EPOCH":"2026-03-01T03:00:02.622240","MEAN_MOTION":13.14502116,"ECCENTRICITY":0.0001233,"INCLINATION":87.8993,"RA_OF_ASC_NODE":311.3093,"ARG_OF_PERICENTER":80.4921,"MEAN_ANOMALY":279.6348,"EPHEMERIS_TYPE":0,"CLASSIFICATION_TYPE":"U","NORAD_CAT_ID":55829,"ELEMENT_SET_NO":999,"REV_AT_EPOCH":14523,"BSTAR":0.00036196,"MEAN_MOTION_DOT":1.47e-6,"MEAN_MOTION_DDOT":0},{"OBJECT_NAME":"ONEWEB-0671","OBJECT_ID":"2023-029AL","EPOCH":"2026-03-01T02:24:33.726240","MEAN_MOTION":13.19724089,"ECCENTRICITY":0.0001549,"INCLINATION":87.9239,"RA_OF_ASC_NODE":326.5081,"ARG_OF_PERICENTER":83.6306,"MEAN_ANOMALY":276.5003,"EPHEMERIS_TYPE":0,"CLASSIFICATION_TYPE":"U","NORAD_CAT_ID":55830,"ELEMENT_SET_NO":999,"REV_AT_EPOCH":14464,"BSTAR":-0.00043351,"MEAN_MOTION_DOT":-1.61e-6,"MEAN_MOTION_DDOT":0},{"OBJECT_NAME":"ONEWEB-0672","OBJECT_ID":"2023-029AM","EPOCH":"2026-03-01T03:21:51.742080","MEAN_MOTION":13.20772302,"ECCENTRICITY":0.0001765,"INCLINATION":87.9186,"RA_OF_ASC_NODE":296.0073,"ARG_OF_PERICENTER":74.9689,"MEAN_ANOMALY":285.1639,"EPHEMERIS_TYPE":0,"CLASSIFICATION_TYPE":"U","NORAD_CAT_ID":55831,"ELEMENT_SET_NO":999,"REV_AT_EPOCH":14688,"BSTAR":0.00032872,"MEAN_MOTION_DOT":1.47e-6,"MEAN_MOTION_DDOT":0},{"OBJECT_NAME":"ONEWEB-0673","OBJECT_ID":"2023-029AN","EPOCH":"2026-03-01T03:40:44.842656","MEAN_MOTION":13.19726937,"ECCENTRICITY":0.0001596,"INCLINATION":87.9244,"RA_OF_ASC_NODE":326.4826,"ARG_OF_PERICENTER":80.527,"MEAN_ANOMALY":279.6043,"EPHEMERIS_TYPE":0,"CLASSIFICATION_TYPE":"U","NORAD_CAT_ID":55832,"ELEMENT_SET_NO":999,"REV_AT_EPOCH":14465,"BSTAR":0.00020728,"MEAN_MOTION_DOT":9.6e-7,"MEAN_MOTION_DDOT":0}]
